start=new Date('2022-01-09T00:00:00.000Z').valueOf();
sats=[{"COUNTRY_CODE":"US","BSTAR":"0.00016100000000","TLE_LINE1":"1 49143U 21082P   22008.91667824  .00019052  00000-0  16100-3 0  9997","TIME_SYSTEM":"UTC","SEMIMAJOR_AXIS":"6737.749","GP_ID":"193492098","SITE":"AFWTR","MEAN_MOTION":"15.69750190","PERIAPSIS":"357.306","NORAD_CAT_ID":"49143","TLE_LINE2":"2 49143  69.9980 158.5821 0003425 285.0460   4.9654 15.69750190  3681","DECAY_DATE":null,"CENTER_NAME":"EARTH","INCLINATION":"69.9980","MEAN_MOTION_DDOT":"0.0000000000000","MEAN_ELEMENT_THEORY":"SGP4","OBJECT_TYPE":"PAYLOAD","MEAN_MOTION_DOT":"0.00019052","REV_AT_EPOCH":"368","LAUNCH_DATE":"2021-09-14","ECCENTRICITY":"0.00034250","RA_OF_ASC_NODE":"158.5821","CLASSIFICATION_TYPE":"U","FILE":"3267514","OBJECT_NAME":"STARLINK-3109","ARG_OF_PERICENTER":"285.0460","OBJECT_ID":"2021-082P","PERIOD":"91.734","RCS_SIZE":"LARGE","REF_FRAME":"TEME","MEAN_ANOMALY":"4.9654","EPOCH":"2022-01-08T22:00:00.999936","ELEMENT_SET_NO":"999","APOAPSIS":"361.921","EPHEMERIS_TYPE":"0"},{"ELEMENT_SET_NO":"999","EPHEMERIS_TYPE":"0","APOAPSIS":"574.309","EPOCH":"2022-01-08T22:00:00.999936","MEAN_ANOMALY":"117.6918","RCS_SIZE":"LARGE","PERIOD":"96.106","REF_FRAME":"TEME","OBJECT_ID":"2021-082Q","ARG_OF_PERICENTER":"275.6005","CLASSIFICATION_TYPE":"U","OBJECT_NAME":"STARLINK-3100","FILE":"3267514","ECCENTRICITY":"0.00032940","RA_OF_ASC_NODE":"168.8610","MEAN_MOTION_DOT":"0.00019929","REV_AT_EPOCH":"358","LAUNCH_DATE":"2021-09-14","OBJECT_TYPE":"PAYLOAD","MEAN_ELEMENT_THEORY":"SGP4","INCLINATION":"70.0006","MEAN_MOTION_DDOT":"0.0000000000000","CENTER_NAME":"EARTH","DECAY_DATE":null,"NORAD_CAT_ID":"49144","TLE_LINE2":"2 49144  70.0006 168.8610 0003294 275.6005 117.6918 14.98342534  3582","PERIAPSIS":"569.730","MEAN_MOTION":"14.98342534","GP_ID":"193492850","SITE":"AFWTR","SEMIMAJOR_AXIS":"6950.154","BSTAR":"0.00167270000000","TLE_LINE1":"1 49144U 21082Q   22008.91667824  .00019929  00000-0  16727-2 0  9995","TIME_SYSTEM":"UTC","COUNTRY_CODE":"US"},{"MEAN_MOTION":"15.69774686","SEMIMAJOR_AXIS":"6737.679","SITE":"AFWTR","GP_ID":"193493601","TIME_SYSTEM":"UTC","BSTAR":"-0.00047170000000","TLE_LINE1":"1 49145U 21082R   22008.91667824 -.00056207  00000-0 -47170-3 0  9995","COUNTRY_CODE":"US","MEAN_MOTION_DDOT":"0.0000000000000","INCLINATION":"70.0007","OBJECT_TYPE":"PAYLOAD","MEAN_ELEMENT_THEORY":"SGP4","DECAY_DATE":null,"CENTER_NAME":"EARTH","TLE_LINE2":"2 49145  70.0007 158.5643 0003481 282.4392  16.0699 15.69774686  3684","NORAD_CAT_ID":"49145","PERIAPSIS":"357.198","FILE":"3267514","OBJECT_NAME":"STARLINK-3119","CLASSIFICATION_TYPE":"U","RA_OF_ASC_NODE":"158.5643","ECCENTRICITY":"0.00034810","LAUNCH_DATE":"2021-09-14","MEAN_MOTION_DOT":"-0.00056207","REV_AT_EPOCH":"368","EPOCH":"2022-01-08T22:00:00.999936","EPHEMERIS_TYPE":"0","APOAPSIS":"361.889","ELEMENT_SET_NO":"999","MEAN_ANOMALY":"16.0699","REF_FRAME":"TEME","RCS_SIZE":"LARGE","PERIOD":"91.733","ARG_OF_PERICENTER":"282.4392","OBJECT_ID":"2021-082R"},{"FILE":"3267514","OBJECT_NAME":"STARLINK-3116","CLASSIFICATION_TYPE":"U","RA_OF_ASC_NODE":"158.5712","ECCENTRICITY":"0.00036410","LAUNCH_DATE":"2021-09-14","REV_AT_EPOCH":"368","MEAN_MOTION_DOT":"-0.00010581","EPOCH":"2022-01-08T22:00:00.999936","APOAPSIS":"362.013","EPHEMERIS_TYPE":"0","ELEMENT_SET_NO":"999","MEAN_ANOMALY":"16.4082","REF_FRAME":"TEME","RCS_SIZE":"LARGE","PERIOD":"91.733","ARG_OF_PERICENTER":"279.9824","OBJECT_ID":"2021-082S","MEAN_MOTION":"15.69769178","SEMIMAJOR_AXIS":"6737.694","GP_ID":"193492349","SITE":"AFWTR","TIME_SYSTEM":"UTC","BSTAR":"-0.00008688700000","TLE_LINE1":"1 49146U 21082S   22008.91667824 -.00010581  00000-0 -86887-4 0  9990","COUNTRY_CODE":"US","MEAN_MOTION_DDOT":"0.0000000000000","INCLINATION":"69.9997","MEAN_ELEMENT_THEORY":"SGP4","OBJECT_TYPE":"PAYLOAD","DECAY_DATE":null,"CENTER_NAME":"EARTH","TLE_LINE2":"2 49146  69.9997 158.5712 0003641 279.9824  16.4082 15.69769178  3686","NORAD_CAT_ID":"49146","PERIAPSIS":"357.106"},{"INCLINATION":"70.0004","MEAN_MOTION_DDOT":"0.0000000000000","MEAN_ELEMENT_THEORY":"SGP4","OBJECT_TYPE":"PAYLOAD","DECAY_DATE":null,"CENTER_NAME":"EARTH","TLE_LINE2":"2 49147  70.0004 158.5728 0003560 283.1239   8.9816 15.69796452  3689","NORAD_CAT_ID":"49147","PERIAPSIS":"357.083","MEAN_MOTION":"15.69796452","SEMIMAJOR_AXIS":"6737.616","GP_ID":"193492599","SITE":"AFWTR","TIME_SYSTEM":"UTC","TLE_LINE1":"1 49147U 21082T   22008.91667824 -.00054932  00000-0 -46047-3 0  9992","BSTAR":"-0.00046047000000","COUNTRY_CODE":"US","EPOCH":"2022-01-08T22:00:00.999936","EPHEMERIS_TYPE":"0","APOAPSIS":"361.880","ELEMENT_SET_NO":"999","MEAN_ANOMALY":"8.9816","REF_FRAME":"TEME","RCS_SIZE":"LARGE","PERIOD":"91.732","ARG_OF_PERICENTER":"283.1239","OBJECT_ID":"2021-082T","FILE":"3267514","OBJECT_NAME":"STARLINK-3071","CLASSIFICATION_TYPE":"U","RA_OF_ASC_NODE":"158.5728","ECCENTRICITY":"0.00035600","LAUNCH_DATE":"2021-09-14","MEAN_MOTION_DOT":"-0.00054932","REV_AT_EPOCH":"368"},{"ECCENTRICITY":"0.00034680","RA_OF_ASC_NODE":"158.5642","CLASSIFICATION_TYPE":"U","OBJECT_NAME":"STARLINK-3048","FILE":"3267514","MEAN_MOTION_DOT":"-0.00011089","REV_AT_EPOCH":"368","LAUNCH_DATE":"2021-09-14","MEAN_ANOMALY":"16.7563","ELEMENT_SET_NO":"999","APOAPSIS":"361.847","EPHEMERIS_TYPE":"0","EPOCH":"2022-01-08T22:00:00.999936","OBJECT_ID":"2021-082U","ARG_OF_PERICENTER":"285.9704","RCS_SIZE":"LARGE","PERIOD":"91.732","REF_FRAME":"TEME","SITE":"AFWTR","GP_ID":"193493351","SEMIMAJOR_AXIS":"6737.645","MEAN_MOTION":"15.69786364","COUNTRY_CODE":"US","BSTAR":"-0.00009109400000","TLE_LINE1":"1 49148U 21082U   22008.91667824 -.00011089  00000-0 -91094-4 0  9992","TIME_SYSTEM":"UTC","CENTER_NAME":"EARTH","DECAY_DATE":null,"OBJECT_TYPE":"PAYLOAD","MEAN_ELEMENT_THEORY":"SGP4","MEAN_MOTION_DDOT":"0.0000000000000","INCLINATION":"69.9976","PERIAPSIS":"357.174","NORAD_CAT_ID":"49148","TLE_LINE2":"2 49148  69.9976 158.5642 0003468 285.9704  16.7563 15.69786364  3681"},{"TIME_SYSTEM":"UTC","TLE_LINE1":"1 49149U 21082V   22008.91667824  .00021136  00000-0  17743-2 0  9992","BSTAR":"0.00177430000000","COUNTRY_CODE":"US","MEAN_MOTION":"14.98318646","SEMIMAJOR_AXIS":"6950.228","SITE":"AFWTR","GP_ID":"193493101","TLE_LINE2":"2 49149  69.9972 168.8736 0003551 284.0706 134.8749 14.98318646  3572","NORAD_CAT_ID":"49149","PERIAPSIS":"569.625","INCLINATION":"69.9972","MEAN_MOTION_DDOT":"0.0000000000000","OBJECT_TYPE":"PAYLOAD","MEAN_ELEMENT_THEORY":"SGP4","DECAY_DATE":null,"CENTER_NAME":"EARTH","LAUNCH_DATE":"2021-09-14","MEAN_MOTION_DOT":"0.00021136","REV_AT_EPOCH":"357","OBJECT_NAME":"STARLINK-3053","FILE":"3267514","CLASSIFICATION_TYPE":"U","RA_OF_ASC_NODE":"168.8736","ECCENTRICITY":"0.00035510","REF_FRAME":"TEME","PERIOD":"96.108","RCS_SIZE":"LARGE","ARG_OF_PERICENTER":"284.0706","OBJECT_ID":"2021-082V","EPOCH":"2022-01-08T22:00:00.999936","APOAPSIS":"574.561","EPHEMERIS_TYPE":"0","ELEMENT_SET_NO":"999","MEAN_ANOMALY":"134.8749"},{"TIME_SYSTEM":"UTC","TLE_LINE1":"1 49150U 21082W   22008.91667824  .00022150  00000-0  18586-2 0  9997","BSTAR":"0.00185860000000","COUNTRY_CODE":"US","MEAN_MOTION":"14.98321787","SITE":"AFWTR","GP_ID":"193491849","SEMIMAJOR_AXIS":"6950.218","TLE_LINE2":"2 49150  69.9964 168.8736 0003463 284.9711 159.8187 14.98321787  3575","NORAD_CAT_ID":"49150","PERIAPSIS":"569.676","MEAN_ELEMENT_THEORY":"SGP4","OBJECT_TYPE":"PAYLOAD","INCLINATION":"69.9964","MEAN_MOTION_DDOT":"0.0000000000000","CENTER_NAME":"EARTH","DECAY_DATE":null,"LAUNCH_DATE":"2021-09-14","MEAN_MOTION_DOT":"0.00022150","REV_AT_EPOCH":"357","OBJECT_NAME":"STARLINK-3104","FILE":"3267514","CLASSIFICATION_TYPE":"U","RA_OF_ASC_NODE":"168.8736","ECCENTRICITY":"0.00034630","REF_FRAME":"TEME","RCS_SIZE":"LARGE","PERIOD":"96.108","OBJECT_ID":"2021-082W","ARG_OF_PERICENTER":"284.9711","EPHEMERIS_TYPE":"0","APOAPSIS":"574.490","ELEMENT_SET_NO":"999","EPOCH":"2022-01-08T22:00:00.999936","MEAN_ANOMALY":"159.8187"},{"DECAY_DATE":null,"CENTER_NAME":"EARTH","MEAN_MOTION_DDOT":"0.0000000000000","INCLINATION":"69.9988","OBJECT_TYPE":"PAYLOAD","MEAN_ELEMENT_THEORY":"SGP4","PERIAPSIS":"357.102","NORAD_CAT_ID":"49151","TLE_LINE2":"2 49151  69.9988 158.5552 0003693 284.0629  20.8235 15.69758470  3683","SEMIMAJOR_AXIS":"6737.725","GP_ID":"193492099","SITE":"AFWTR","MEAN_MOTION":"15.69758470","COUNTRY_CODE":"US","BSTAR":"0.00010598000000","TLE_LINE1":"1 49151U 21082X   22008.91667824  .00012463  00000-0  10598-3 0  9990","TIME_SYSTEM":"UTC","MEAN_ANOMALY":"20.8235","EPOCH":"2022-01-08T22:00:00.999936","ELEMENT_SET_NO":"999","APOAPSIS":"362.078","EPHEMERIS_TYPE":"0","ARG_OF_PERICENTER":"284.0629","OBJECT_ID":"2021-082X","RCS_SIZE":"LARGE","PERIOD":"91.734","REF_FRAME":"TEME","ECCENTRICITY":"0.00036930","RA_OF_ASC_NODE":"158.5552","CLASSIFICATION_TYPE":"U","FILE":"3267514","OBJECT_NAME":"STARLINK-3102","REV_AT_EPOCH":"368","MEAN_MOTION_DOT":"0.00012463","LAUNCH_DATE":"2021-09-14"},{"OBJECT_TYPE":"PAYLOAD","MEAN_ELEMENT_THEORY":"SGP4","INCLINATION":"69.9996","MEAN_MOTION_DDOT":"0.0000000000000","CENTER_NAME":"EARTH","DECAY_DATE":null,"TLE_LINE2":"2 49152  69.9996 158.5511 0003650 284.7213  28.6492 15.69805193  3683","NORAD_CAT_ID":"49152","PERIAPSIS":"356.997","MEAN_MOTION":"15.69805193","GP_ID":"193492851","SITE":"AFWTR","SEMIMAJOR_AXIS":"6737.591","TIME_SYSTEM":"UTC","TLE_LINE1":"1 49152U 21082Y   22008.91667824 -.00076487  00000-0 -64325-3 0  9996","BSTAR":"-0.00064325000000","COUNTRY_CODE":"US","APOAPSIS":"361.916","EPHEMERIS_TYPE":"0","ELEMENT_SET_NO":"999","EPOCH":"2022-01-08T22:00:00.999936","MEAN_ANOMALY":"28.6492","REF_FRAME":"TEME","PERIOD":"91.731","RCS_SIZE":"LARGE","OBJECT_ID":"2021-082Y","ARG_OF_PERICENTER":"284.7213","OBJECT_NAME":"STARLINK-3081","FILE":"3267514","CLASSIFICATION_TYPE":"U","RA_OF_ASC_NODE":"158.5511","ECCENTRICITY":"0.00036500","LAUNCH_DATE":"2021-09-14","REV_AT_EPOCH":"368","MEAN_MOTION_DOT":"-0.00076487"}];
